{
  "type": "FeatureCollection",
  "features": [
    {
      "type": "Feature",
      "properties": {
        "norad_id": 39227,
        "name": "ARIRANG-5 (KOMPSAT-5)",
        "group": "resource",
        "lat": 62.56027114738473,
        "lon": 164.64807243721813,
        "alt_km": 544.7517703376325,
        "timestamp": "2025-12-21T09:37:22.305360+00:00",
        "meta_object_name": "ARIRANG-5 (KOMPSAT-5)",
        "meta_object_id": "2013-042A",
        "meta_epoch": "2025-12-21T04:33:10.949184",
        "meta_mean_motion": 15.04540663,
        "meta_eccentricity": 0.0003419,
        "meta_inclination": 97.6155,
        "meta_ra_of_asc_node": 179.3724,
        "meta_arg_of_pericenter": 36.0222,
        "meta_mean_anomaly": 324.1234,
        "meta_ephemeris_type": 0,
        "meta_classification_type": "U",
        "meta_norad_cat_id": 39227,
        "meta_element_set_no": 999,
        "meta_rev_at_epoch": 67709,
        "meta_bstar": 0.00012322,
        "meta_mean_motion_dot": 1.666e-05,
        "meta_mean_motion_ddot": 0,
        "tle_line1": "1 39227U 13042A   25355.18971006  .00001666  00000+0  12322-3 0  9996",
        "tle_line2": "2 39227  97.6155 179.3724 0003419  36.0222 324.1234 15.04540663677095"
      },
      "geometry": {
        "type": "Point",
        "coordinates": [
          164.64807243721813,
          62.56027114738473
        ]
      }
    },
    {
      "type": "Feature",
      "properties": {
        "norad_id": 39418,
        "name": "SKYSAT-A",
        "group": "resource",
        "lat": -61.04499264455645,
        "lon": 58.9499444071889,
        "alt_km": 539.0440265144343,
        "timestamp": "2025-12-21T09:37:22.305370+00:00",
        "meta_object_name": "SKYSAT-A",
        "meta_object_id": "2013-066C",
        "meta_epoch": "2025-12-21T01:57:13.302144",
        "meta_mean_motion": 15.11659426,
        "meta_eccentricity": 0.0021349,
        "meta_inclination": 97.4095,
        "meta_ra_of_asc_node": 45.0363,
        "meta_arg_of_pericenter": 206.3198,
        "meta_mean_anomaly": 153.695,
        "meta_ephemeris_type": 0,
        "meta_classification_type": "U",
        "meta_norad_cat_id": 39418,
        "meta_element_set_no": 999,
        "meta_rev_at_epoch": 66156,
        "meta_bstar": 0.00016231,
        "meta_mean_motion_dot": 2.711e-05,
        "meta_mean_motion_ddot": 0,
        "tle_line1": "1 39418U 13066C   25355.08140396  .00002711  00000+0  16231-3 0  9998",
        "tle_line2": "2 39418  97.4095  45.0363 0021349 206.3198 153.6950 15.11659426661563"
      },
      "geometry": {
        "type": "Point",
        "coordinates": [
          58.9499444071889,
          -61.04499264455645
        ]
      }
    },
    {
      "type": "Feature",
      "properties": {
        "norad_id": 39419,
        "name": "DUBAISAT-2",
        "group": "resource",
        "lat": -20.602856767964017,
        "lon": -11.64130980342337,
        "alt_km": 541.9888095149954,
        "timestamp": "2025-12-21T09:37:22.305380+00:00",
        "meta_object_name": "DUBAISAT-2",
        "meta_object_id": "2013-066D",
        "meta_epoch": "2025-12-21T03:20:47.203872",
        "meta_mean_motion": 15.08425326,
        "meta_eccentricity": 0.001005,
        "meta_inclination": 97.4439,
        "meta_ra_of_asc_node": 345.2879,
        "meta_arg_of_pericenter": 288.7135,
        "meta_mean_anomaly": 71.3002,
        "meta_ephemeris_type": 0,
        "meta_classification_type": "U",
        "meta_norad_cat_id": 39419,
        "meta_element_set_no": 999,
        "meta_rev_at_epoch": 65953,
        "meta_bstar": 0.00012437,
        "meta_mean_motion_dot": 1.876e-05,
        "meta_mean_motion_ddot": 0,
        "tle_line1": "1 39419U 13066D   25355.13943523  .00001876  00000+0  12437-3 0  9993",
        "tle_line2": "2 39419  97.4439 345.2879 0010050 288.7135  71.3002 15.08425326659539"
      },
      "geometry": {
        "type": "Point",
        "coordinates": [
          -11.64130980342337,
          -20.602856767964017
        ]
      }
    },
    {
      "type": "Feature",
      "properties": {
        "norad_id": 39574,
        "name": "GPM-CORE",
        "group": "resource",
        "lat": -6.95104461319631,
        "lon": 6.9432611466820315,
        "alt_km": 432.4230280726224,
        "timestamp": "2025-12-21T09:37:22.305390+00:00",
        "meta_object_name": "GPM-CORE",
        "meta_object_id": "2014-009C",
        "meta_epoch": "2025-12-21T02:35:49.841664",
        "meta_mean_motion": 15.44582869,
        "meta_eccentricity": 0.0009325,
        "meta_inclination": 64.9718,
        "meta_ra_of_asc_node": 184.6576,
        "meta_arg_of_pericenter": 248.5054,
        "meta_mean_anomaly": 111.5092,
        "meta_ephemeris_type": 0,
        "meta_classification_type": "U",
        "meta_norad_cat_id": 39574,
        "meta_element_set_no": 999,
        "meta_rev_at_epoch": 67030,
        "meta_bstar": 0.00012355,
        "meta_mean_motion_dot": 5.529e-05,
        "meta_mean_motion_ddot": 0,
        "tle_line1": "1 39574U 14009C   25355.10821576  .00005529  00000+0  12355-3 0  9991",
        "tle_line2": "2 39574  64.9718 184.6576 0009325 248.5054 111.5092 15.44582869670306"
      },
      "geometry": {
        "type": "Point",
        "coordinates": [
          6.9432611466820315,
          -6.95104461319631
        ]
      }
    },
    {
      "type": "Feature",
      "properties": {
        "norad_id": 39634,
        "name": "SENTINEL-1A",
        "group": "resource",
        "lat": -54.633318216928096,
        "lon": 168.82308074518926,
        "alt_km": 703.5551992824912,
        "timestamp": "2025-12-21T09:37:22.305400+00:00",
        "meta_object_name": "SENTINEL-1A",
        "meta_object_id": "2014-016A",
        "meta_epoch": "2025-12-21T03:36:36.967104",
        "meta_mean_motion": 14.5920104,
        "meta_eccentricity": 0.0001273,
        "meta_inclination": 98.1795,
        "meta_ra_of_asc_node": 0.2677,
        "meta_arg_of_pericenter": 86.2215,
        "meta_mean_anomaly": 273.9131,
        "meta_ephemeris_type": 0,
        "meta_classification_type": "U",
        "meta_norad_cat_id": 39634,
        "meta_element_set_no": 999,
        "meta_rev_at_epoch": 62405,
        "meta_bstar": 7.5855e-05,
        "meta_mean_motion_dot": 3.12e-06,
        "meta_mean_motion_ddot": 0,
        "tle_line1": "1 39634U 14016A   25355.15042786  .00000312  00000+0  75855-4 0  9999",
        "tle_line2": "2 39634  98.1795   0.2677 0001273  86.2215 273.9131 14.59201040624054"
      },
      "geometry": {
        "type": "Point",
        "coordinates": [
          168.82308074518926,
          -54.633318216928096
        ]
      }
    },
    {
      "type": "Feature",
      "properties": {
        "norad_id": 39731,
        "name": "KAZEOSAT 1",
        "group": "resource",
        "lat": 35.91677284812817,
        "lon": 61.01251848578397,
        "alt_km": 748.7870154994898,
        "timestamp": "2025-12-21T09:37:22.305410+00:00",
        "meta_object_name": "KAZEOSAT 1",
        "meta_object_id": "2014-024A",
        "meta_epoch": "2025-12-21T04:27:32.629248",
        "meta_mean_motion": 14.4206658,
        "meta_eccentricity": 0.0001177,
        "meta_inclination": 98.3431,
        "meta_ra_of_asc_node": 66.9039,
        "meta_arg_of_pericenter": 98.7767,
        "meta_mean_anomaly": 261.3556,
        "meta_ephemeris_type": 0,
        "meta_classification_type": "U",
        "meta_norad_cat_id": 39731,
        "meta_element_set_no": 999,
        "meta_rev_at_epoch": 61290,
        "meta_bstar": 2.1377e-05,
        "meta_mean_motion_dot": 2.7e-07,
        "meta_mean_motion_ddot": 0,
        "tle_line1": "1 39731U 14024A   25355.18579432  .00000027  00000+0  21377-4 0  9995",
        "tle_line2": "2 39731  98.3431  66.9039 0001177  98.7767 261.3556 14.42066580612908"
      },
      "geometry": {
        "type": "Point",
        "coordinates": [
          61.01251848578397,
          35.91677284812817
        ]
      }
    },
    {
      "type": "Feature",
      "properties": {
        "norad_id": 39766,
        "name": "ALOS-2",
        "group": "resource",
        "lat": 4.721621768445968,
        "lon": 89.4648997996234,
        "alt_km": 633.4306852944146,
        "timestamp": "2025-12-21T09:37:22.305420+00:00",
        "meta_object_name": "ALOS-2",
        "meta_object_id": "2014-029A",
        "meta_epoch": "2025-12-21T04:43:54.507360",
        "meta_mean_motion": 14.79470972,
        "meta_eccentricity": 0.0001402,
        "meta_inclination": 97.9231,
        "meta_ra_of_asc_node": 89.9231,
        "meta_arg_of_pericenter": 98.7565,
        "meta_mean_anomaly": 261.3805,
        "meta_ephemeris_type": 0,
        "meta_classification_type": "U",
        "meta_norad_cat_id": 39766,
        "meta_element_set_no": 999,
        "meta_rev_at_epoch": 62526,
        "meta_bstar": 0.00017939,
        "meta_mean_motion_dot": 1.288e-05,
        "meta_mean_motion_ddot": 0,
        "tle_line1": "1 39766U 14029A   25355.19715865  .00001288  00000+0  17939-3 0  9999",
        "tle_line2": "2 39766  97.9231  89.9231 0001402  98.7565 261.3805 14.79470972625269"
      },
      "geometry": {
        "type": "Point",
        "coordinates": [
          89.4648997996234,
          4.721621768445968
        ]
      }
    }
  ]
}